[{"OBJECT_NAME":"KAZSTSAT","OBJECT_ID":"2018-099AB","EPOCH":"2026-03-09T14:51:18.118944","MEAN_MOTION":14.99620503,"ECCENTRICITY":0.0006528,"INCLINATION":97.4396,"RA_OF_ASC_NODE":105.0128,"ARG_OF_PERICENTER":11.1145,"MEAN_ANOMALY":349.0222,"EPHEMERIS_TYPE":0,"CLASSIFICATION_TYPE":"U","NORAD_CAT_ID":43783,"ELEMENT_SET_NO":999,"REV_AT_EPOCH":39638,"BSTAR":0.00011446,"MEAN_MOTION_DOT":1.354e-5,"MEAN_MOTION_DDOT":0},{"OBJECT_NAME":"STARLINK-5919","OBJECT_ID":"2023-037P","EPOCH":"2026-03-09T21:53:55.511520","MEAN_MOTION":14.9830823,"ECCENTRICITY":0.00026639,"INCLINATION":70.0036,"RA_OF_ASC_NODE":303.7784,"ARG_OF_PERICENTER":210.5626,"MEAN_ANOMALY":149.5378,"EPHEMERIS_TYPE":0,"CLASSIFICATION_TYPE":"U","NORAD_CAT_ID":55927,"ELEMENT_SET_NO":999,"REV_AT_EPOCH":16352,"BSTAR":-4.2850414e-5,"MEAN_MOTION_DOT":-6.04e-6,"MEAN_MOTION_DDOT":0}]
